{
    "links": {
        "self": "http://www.neowsapp.com/rest/v1/neo/3905998?api_key=iIulBulltgU6a56xZRHN4H3l9WmuAYTsLGpBGhQ2"
    },
    "id": "3905998",
    "neo_reference_id": "3905998",
    "name": "(2019 XP1)",
    "designation": "2019 XP1",
    "nasa_jpl_url": "http://ssd.jpl.nasa.gov/sbdb.cgi?sstr=3905998",
    "absolute_magnitude_h": 25.0,
    "estimated_diameter": {
        "kilometers": {
            "estimated_diameter_min": 0.02658,
            "estimated_diameter_max": 0.0594346868
        },
        "meters": {
            "estimated_diameter_min": 26.58,
            "estimated_diameter_max": 59.4346868419
        },
        "miles": {
            "estimated_diameter_min": 0.0165160412,
            "estimated_diameter_max": 0.0369309908
        },
        "feet": {
            "estimated_diameter_min": 87.2047272,
            "estimated_diameter_max": 194.9956979785
        }
    },
    "is_potentially_hazardous_asteroid": false,
    "close_approach_data": [
        {
            "close_approach_date": "2011-11-27",
            "close_approach_date_full": "2011-Nov-27 04:52",
            "epoch_date_close_approach": 1322369520000,
            "relative_velocity": {
                "kilometers_per_second": "7.9095888653",
                "kilometers_per_hour": "28474.5199152106",
                "miles_per_hour": "17692.9593328707"
            },
            "miss_distance": {
                "astronomical": "0.0485536901",
                "lunar": "18.8873854489",
                "kilometers": "7263528.619600087",
                "miles": "4513347.3975197206"
            },
            "orbiting_body": "Mars"
        },
        {
            "close_approach_date": "2019-11-18",
            "close_approach_date_full": "2019-Nov-18 08:53",
            "epoch_date_close_approach": 1574067180000,
            "relative_velocity": {
                "kilometers_per_second": "12.0115996659",
                "kilometers_per_hour": "43241.7587970964",
                "miles_per_hour": "26868.7472925625"
            },
            "miss_distance": {
                "astronomical": "0.0208888485",
                "lunar": "8.1257620665",
                "kilometers": "3124927.242352695",
                "miles": "1941739.748729391"
            },
            "orbiting_body": "Earth"
        }
    ],
    "orbital_data": {
        "orbit_id": "2",
        "orbit_determination_date": "2020-01-10 05:41:13",
        "first_observation_date": "2019-12-03",
        "last_observation_date": "2019-12-24",
        "data_arc_in_days": 21,
        "observations_used": 18,
        "orbit_uncertainty": "8",
        "minimum_orbit_intersection": ".00922094",
        "jupiter_tisserand_invariant": "4.657",
        "epoch_osculation": "2458840.5",
        "eccentricity": ".4263667732154796",
        "semi_major_axis": "1.399026709995219",
        "inclination": ".9628891045932274",
        "ascending_node_longitude": "305.4533161232544",
        "orbital_period": "604.4180646990259",
        "perihelion_distance": ".8025282060122888",
        "perihelion_argument": "40.54041812295736",
        "aphelion_distance": "1.995525213978149",
        "perihelion_time": "2458757.156638387566",
        "mean_anomaly": "49.64049212429933",
        "mean_motion": ".5956142296628153",
        "equinox": "J2000",
        "orbit_class": {
            "orbit_class_type": "APO",
            "orbit_class_description": "Near-Earth asteroid orbits which cross the Earth’s orbit similar to that of 1862 Apollo",
            "orbit_class_range": "a (semi-major axis) > 1.0 AU; q (perihelion) < 1.017 AU"
        }
    },
    "is_sentry_object": false
}